{
    "bodies": [
        {
            "name": "TNO-146",
            "mass": 0,
            "semi_major_axis": 231.11111111111111,
            "eccentricity": 0.8231746031746032,
            "inclination": 0.10111828205998892,
            "longitude_of_ascending_node": 4.8281481336378755,
            "argument_of_perihelion": 2.535371268629076,
            "mean_anomaly": 6.040313993832096
        },
        {
            "name": "TNO-147",
            "mass": 0,
            "semi_major_axis": 231.66666666666669,
            "eccentricity": 0.8233333333333334,
            "inclination": 0.10181087303300256,
            "longitude_of_ascending_node": 4.526757240921931,
            "argument_of_perihelion": 0.7302186686990176,
            "mean_anomaly": 4.623279099729444
        },
        {
            "name": "TNO-148",
            "mass": 0,
            "semi_major_axis": 232.22222222222223,
            "eccentricity": 0.8234920634920635,
            "inclination": 0.10250346400601618,
            "longitude_of_ascending_node": 0.07823456920830218,
            "argument_of_perihelion": 3.203537970010667,
            "mean_anomaly": 5.617358683289041
        },
        {
            "name": "TNO-149",
            "mass": 0,
            "semi_major_axis": 232.77777777777777,
            "eccentricity": 0.8236507936507937,
            "inclination": 0.1031960549790298,
            "longitude_of_ascending_node": 4.82364751798462,
            "argument_of_perihelion": 1.8412785059884198,
            "mean_anomaly": 3.9608053546934805
        },
        {
            "name": "TNO-150",
            "mass": 0,
            "semi_major_axis": 233.33333333333334,
            "eccentricity": 0.8238095238095239,
            "inclination": 0.10388864595204342,
            "longitude_of_ascending_node": 4.24747687540673,
            "argument_of_perihelion": 1.7666743140341774,
            "mean_anomaly": 1.7870802090989837
        },
        {
            "name": "TNO-151",
            "mass": 0,
            "semi_major_axis": 233.88888888888889,
            "eccentricity": 0.823968253968254,
            "inclination": 0.10458123692505704,
            "longitude_of_ascending_node": 1.4383549904436925,
            "argument_of_perihelion": 5.535111491763824,
            "mean_anomaly": 3.497944729829979
        },
        {
            "name": "TNO-152",
            "mass": 0,
            "semi_major_axis": 234.44444444444446,
            "eccentricity": 0.8241269841269842,
            "inclination": 0.10527382789807066,
            "longitude_of_ascending_node": 2.175473711589404,
            "argument_of_perihelion": 4.251984082563803,
            "mean_anomaly": 5.688152610079761
        },
        {
            "name": "TNO-153",
            "mass": 0,
            "semi_major_axis": 235.0,
            "eccentricity": 0.8242857142857143,
            "inclination": 0.10596641887108428,
            "longitude_of_ascending_node": 0.7351460785497178,
            "argument_of_perihelion": 5.877258033471516,
            "mean_anomaly": 0.6771611279791592
        },
        {
            "name": "TNO-154",
            "mass": 0,
            "semi_major_axis": 235.55555555555554,
            "eccentricity": 0.8244444444444445,
            "inclination": 0.1066590098440979,
            "longitude_of_ascending_node": 1.2689107379102096,
            "argument_of_perihelion": 2.9224814714216296,
            "mean_anomaly": 5.217028775771167
        },
        {
            "name": "TNO-155",
            "mass": 0,
            "semi_major_axis": 236.11111111111111,
            "eccentricity": 0.8246031746031747,
            "inclination": 0.10735160081711154,
            "longitude_of_ascending_node": 0.008759781092532977,
            "argument_of_perihelion": 5.909056290162814,
            "mean_anomaly": 4.033383747684024
        },
        {
            "name": "TNO-156",
            "mass": 0,
            "semi_major_axis": 236.66666666666669,
            "eccentricity": 0.8247619047619048,
            "inclination": 0.10804419179012516,
            "longitude_of_ascending_node": 5.474673971923417,
            "argument_of_perihelion": 5.596138948539758,
            "mean_anomaly": 6.252205493970075
        },
        {
            "name": "TNO-157",
            "mass": 0,
            "semi_major_axis": 237.22222222222223,
            "eccentricity": 0.8249206349206349,
            "inclination": 0.10873678276313878,
            "longitude_of_ascending_node": 0.01859464202486336,
            "argument_of_perihelion": 1.2796186048448719,
            "mean_anomaly": 4.8504671086459075
        },
        {
            "name": "TNO-158",
            "mass": 0,
            "semi_major_axis": 237.77777777777777,
            "eccentricity": 0.8250793650793651,
            "inclination": 0.1094293737361524,
            "longitude_of_ascending_node": 4.442987560810253,
            "argument_of_perihelion": 5.421431273055965,
            "mean_anomaly": 0.4140325773702028
        },
        {
            "name": "TNO-159",
            "mass": 0,
            "semi_major_axis": 238.33333333333334,
            "eccentricity": 0.8252380952380953,
            "inclination": 0.11012196470916602,
            "longitude_of_ascending_node": 5.841734647468047,
            "argument_of_perihelion": 4.547549751511276,
            "mean_anomaly": 0.724380842889218
        },
        {
            "name": "TNO-160",
            "mass": 0,
            "semi_major_axis": 238.88888888888889,
            "eccentricity": 0.8253968253968255,
            "inclination": 0.11081455568217964,
            "longitude_of_ascending_node": 2.2446701284056303,
            "argument_of_perihelion": 3.0792024967725933,
            "mean_anomaly": 5.952379434978283
        },
        {
            "name": "TNO-161",
            "mass": 0,
            "semi_major_axis": 239.44444444444446,
            "eccentricity": 0.8255555555555556,
            "inclination": 0.11150714665519326,
            "longitude_of_ascending_node": 5.845512795356591,
            "argument_of_perihelion": 0.8190324651816547,
            "mean_anomaly": 5.285546702756931
        },
        {
            "name": "TNO-162",
            "mass": 0,
            "semi_major_axis": 240.0,
            "eccentricity": 0.8257142857142857,
            "inclination": 0.1121997376282069,
            "longitude_of_ascending_node": 5.005103404491108,
            "argument_of_perihelion": 3.9622706062203163,
            "mean_anomaly": 5.664814136623784
        },
        {
            "name": "TNO-163",
            "mass": 0,
            "semi_major_axis": 240.55555555555554,
            "eccentricity": 0.8258730158730159,
            "inclination": 0.11289232860122052,
            "longitude_of_ascending_node": 5.273033269717508,
            "argument_of_perihelion": 1.352773273983121,
            "mean_anomaly": 5.197968240469979
        },
        {
            "name": "TNO-164",
            "mass": 0,
            "semi_major_axis": 241.11111111111111,
            "eccentricity": 0.8260317460317461,
            "inclination": 0.11358491957423414,
            "longitude_of_ascending_node": 3.538402799678918,
            "argument_of_perihelion": 3.9482054364138484,
            "mean_anomaly": 1.04040273625806
        },
        {
            "name": "TNO-165",
            "mass": 0,
            "semi_major_axis": 241.66666666666669,
            "eccentricity": 0.8261904761904763,
            "inclination": 0.11427751054724776,
            "longitude_of_ascending_node": 4.216971612502108,
            "argument_of_perihelion": 5.5522091687070665,
            "mean_anomaly": 2.7942484012385616
        },
        {
            "name": "TNO-166",
            "mass": 0,
            "semi_major_axis": 242.22222222222223,
            "eccentricity": 0.8263492063492064,
            "inclination": 0.11497010152026138,
            "longitude_of_ascending_node": 2.89652368936155,
            "argument_of_perihelion": 5.531552759368689,
            "mean_anomaly": 1.1594910388738646
        },
        {
            "name": "TNO-167",
            "mass": 0,
            "semi_major_axis": 242.77777777777777,
            "eccentricity": 0.8265079365079365,
            "inclination": 0.115662692493275,
            "longitude_of_ascending_node": 1.5967912577106145,
            "argument_of_perihelion": 6.139296226658071,
            "mean_anomaly": 1.258755840182332
        },
        {
            "name": "TNO-168",
            "mass": 0,
            "semi_major_axis": 243.33333333333334,
            "eccentricity": 0.8266666666666667,
            "inclination": 0.11635528346628862,
            "longitude_of_ascending_node": 5.342678677640889,
            "argument_of_perihelion": 2.893866544123065,
            "mean_anomaly": 5.610762504768072
        },
        {
            "name": "TNO-169",
            "mass": 0,
            "semi_major_axis": 243.8888888888889,
            "eccentricity": 0.8268253968253969,
            "inclination": 0.11704787443930224,
            "longitude_of_ascending_node": 2.0445714830767936,
            "argument_of_perihelion": 2.0959132513322314,
            "mean_anomaly": 5.761726201349743
        },
        {
            "name": "TNO-170",
            "mass": 0,
            "semi_major_axis": 244.44444444444446,
            "eccentricity": 0.826984126984127,
            "inclination": 0.11774046541231588,
            "longitude_of_ascending_node": 1.3861027475756662,
            "argument_of_perihelion": 3.7376077201529916,
            "mean_anomaly": 1.4468003701148588
        }
    ]
}